H1 CPF  1  DGF 2022 09 29 02  7721 larets     NONE      
H2   304206 5557    27944 2022 09 23 00 00 00 2022 09 30 00 00 00    30 1 1  0 0 0
H5  0.0650
H9
10 0 59846  32400.000000  0        396522.433      -2637760.885      -6539488.927
10 0 59846  32430.000000  0        334405.369      -2840549.518      -6457265.021
10 0 59846  32460.000000  0        271070.508      -3040196.807      -6368475.662
10 0 59846  32490.000000  0        206595.898      -3236495.348      -6273209.562
10 0 59846  32520.000000  0        141061.667      -3429241.346      -6171562.014
10 0 59846  32550.000000  0         74549.926      -3618234.824      -6063634.808
10 0 59846  32580.000000  0          7144.676      -3803279.834      -5949536.139
10 0 59846  32610.000000  0        -61068.297      -3984184.668      -5829380.510
10 0 59846  32640.000000  0       -130001.523      -4160762.061      -5703288.626
10 0 59846  32670.000000  0       -199565.954      -4332829.392      -5571387.283
10 0 59846  32700.000000  0       -269671.076      -4500208.881      -5433809.249
10 0 59846  32730.000000  0       -340225.021      -4662727.779      -5290693.139
10 0 59846  32760.000000  0       -411134.680      -4820218.557      -5142183.284
10 0 59846  32790.000000  0       -482305.822      -4972519.088      -4988429.595
10 0 59846  32820.000000  0       -553643.212      -5119472.822      -4829587.416
10 0 59846  32850.000000  0       -625050.734      -5260928.961      -4665817.380
10 0 59846  32880.000000  0       -696431.514      -5396742.623      -4497285.243
10 0 59846  32910.000000  0       -767688.045      -5526774.999      -4324161.731
10 0 59846  32940.000000  0       -838722.312      -5650893.511      -4146622.364
10 0 59846  32970.000000  0       -909435.927      -5768971.955      -3964847.289
10 0 59846  33000.000000  0       -979730.251      -5880890.640      -3779021.095
10 0 59846  33030.000000  0      -1049506.526      -5986536.523      -3589332.634
10 0 59846  33060.000000  0      -1118666.012      -6085803.335      -3395974.824
10 0 59846  33090.000000  0      -1187110.113      -6178591.698      -3199144.465
10 0 59846  33120.000000  0      -1254740.517      -6264809.238      -2999042.030
10 0 59846  33150.000000  0      -1321459.323      -6344370.690      -2795871.467
10 0 59846  33180.000000  0      -1387169.182      -6417197.996      -2589839.986
10 0 59846  33210.000000  0      -1451773.427      -6483220.390      -2381157.844
10 0 59846  33240.000000  0      -1515176.205      -6542374.477      -2170038.127
10 0 59846  33270.000000  0      -1577282.615      -6594604.307      -1956696.531
10 0 59846  33300.000000  0      -1637998.836      -6639861.433      -1741351.131
10 0 59846  33330.000000  0      -1697232.262      -6678104.967      -1524222.159
10 0 59846  33360.000000  0      -1754891.631      -6709301.624      -1305531.765
10 0 59846  33390.000000  0      -1810887.154      -6733425.757      -1085503.789
10 0 59846  33420.000000  0      -1865130.647      -6750459.384       -864363.518
10 0 59846  33450.000000  0      -1917535.654      -6760392.201       -642337.453
10 0 59846  33480.000000  0      -1968017.574      -6763221.596       -419653.064
10 0 59846  33510.000000  0      -2016493.782      -6758952.640       -196538.551
10 0 59846  33540.000000  0      -2062883.755      -6747598.085         26777.399
10 0 59846  33570.000000  0      -2107109.186      -6729178.334        250065.859
10 0 59846  33600.000000  0      -2149094.098      -6703721.420        473097.903
10 0 59846  33630.000000  0      -2188764.966      -6671262.964        695644.850
10 0 59846  33660.000000  0      -2226050.816      -6631846.126        917478.510
10 0 59846  33690.000000  0      -2260883.340      -6585521.552       1138371.430
10 0 59846  33720.000000  0      -2293196.996      -6532347.307       1358097.130
10 0 59846  33750.000000  0      -2322929.112      -6472388.798       1576430.350
10 0 59846  33780.000000  0      -2350019.976      -6405718.694       1793147.292
10 0 59846  33810.000000  0      -2374412.936      -6332416.829       2008025.852
10 0 59846  33840.000000  0      -2396054.485      -6252570.108       2220845.859
10 0 59846  33870.000000  0      -2414894.344      -6166272.391       2431389.309
10 0 59846  33900.000000  0      -2430885.546      -6073624.381       2639440.593
10 0 59846  33930.000000  0      -2443984.511      -5974733.497       2844786.726
10 0 59846  33960.000000  0      -2454151.115      -5869713.741       3047217.570
10 0 59846  33990.000000  0      -2461348.761      -5758685.559       3246526.051
10 0 59846  34020.000000  0      -2465544.442      -5641775.695       3442508.380
10 0 59846  34050.000000  0      -2466708.796      -5519117.036       3634964.257
10 0 59846  34080.000000  0      -2464816.161      -5390848.454       3823697.087
10 0 59846  34110.000000  0      -2459844.626      -5257114.636       4008514.175
10 0 59846  34140.000000  0      -2451776.072      -5118065.916       4189226.928
10 0 59846  34170.000000  0      -2440596.214      -4973858.092       4365651.044
10 0 59846  34200.000000  0      -2426294.637      -4824652.250       4537606.702
10 0 59846  34230.000000  0      -2408864.825      -4670614.568       4704918.748
10 0 59846  34260.000000  0      -2388304.186      -4511916.127       4867416.867
10 0 59846  34290.000000  0      -2364614.078      -4348732.707       5024935.762
10 0 59846  34320.000000  0      -2337799.816      -4181244.582       5177315.318
10 0 59846  34350.000000  0      -2307870.684      -4009636.307       5324400.757
10 0 59846  34380.000000  0      -2274839.942      -3834096.509       5466042.792
10 0 59846  34410.000000  0      -2238724.820      -3654817.671       5602097.772
10 0 59846  34440.000000  0      -2199546.521      -3471995.914       5732427.819
10 0 59846  34470.000000  0      -2157330.200      -3285830.775       5856900.966
10 0 59846  34500.000000  0      -2112104.959      -3096524.984       5975391.279
10 0 59846  34530.000000  0      -2063903.819      -2904284.238       6087778.983
10 0 59846  34560.000000  0      -2012763.701      -2709316.973       6193950.570
10 0 59846  34590.000000  0      -1958725.394      -2511834.135       6293798.912
10 0 59846  34620.000000  0      -1901833.521      -2312048.950       6387223.359
10 0 59846  34650.000000  0      -1842136.504      -2110176.686       6474129.842
10 0 59846  34680.000000  0      -1779686.518      -1906434.420       6554430.954
10 0 59846  34710.000000  0      -1714539.446      -1701040.797       6628046.035
10 0 59846  34740.000000  0      -1646754.823      -1494215.793       6694901.242
10 0 59846  34770.000000  0      -1576395.782      -1286180.476       6754929.618
10 0 59846  34800.000000  0      -1503528.998      -1077156.769       6808071.144
10 0 59846  34830.000000  0      -1428224.617       -867367.213       6854272.793
10 0 59846  34860.000000  0      -1350556.192       -657034.734       6893488.576
10 0 59846  34890.000000  0      -1270600.614       -446382.408       6925679.581
10 0 59846  34920.000000  0      -1188438.026       -235633.227       6950814.012
10 0 59846  34950.000000  0      -1104151.754        -25009.863       6968867.219
10 0 59846  34980.000000  0      -1017828.210        185265.566       6979821.713
10 0 59846  35010.000000  0       -929556.809        394971.734       6983667.185
10 0 59846  35040.000000  0       -839429.875        603888.332       6980400.510
10 0 59846  35070.000000  0       -747542.542        811796.305       6970025.746
10 0 59846  35100.000000  0       -653992.653       1018478.075       6952554.129
10 0 59846  35130.000000  0       -558880.658       1223717.768       6928004.056
10 0 59846  35160.000000  0       -462309.505       1427301.438       6896401.072
10 0 59846  35190.000000  0       -364384.529       1629017.292       6857777.836
10 0 59846  35220.000000  0       -265213.337       1828655.906       6812174.091
10 0 59846  35250.000000  0       -164905.689       2026010.443       6759636.619
10 0 59846  35280.000000  0        -63573.381       2220876.862       6700219.195
10 0 59846  35310.000000  0         38669.883       2413054.126       6633982.536
10 0 59846  35340.000000  0        141708.611       2602344.412       6560994.241
10 0 59846  35370.000000  0        245425.657       2788553.309       6481328.723
10 0 59846  35400.000000  0        349702.347       2971490.027       6395067.142
10 0 59846  35430.000000  0        454418.617       3150967.583       6302297.325
10 0 59846  35460.000000  0        559453.148       3326803.002       6203113.674
10 0 59846  35490.000000  0        664683.502       3498817.498       6097617.080
10 0 59846  35520.000000  0        769986.268       3666836.661       5985914.822
10 0 59846  35550.000000  0        875237.199       3830690.633       5868120.462
10 0 59846  35580.000000  0        980311.357       3990214.282       5744353.738
10 0 59846  35610.000000  0       1085083.262       4145247.371       5614740.443
10 0 59846  35640.000000  0       1189427.039       4295634.726       5479412.307
10 0 59846  35670.000000  0       1293216.565       4441226.390       5338506.864
10 0 59846  35700.000000  0       1396325.621       4581877.786       5192167.321
10 0 59846  35730.000000  0       1498628.043       4717449.856       5040542.408
10 0 59846  35760.000000  0       1599997.873       4847809.208       4883786.234
10 0 59846  35790.000000  0       1700309.512       4972828.241       4722058.135
10 0 59846  35820.000000  0       1799437.871       5092385.281       4555522.516
10 0 59846  35850.000000  0       1897258.524       5206364.698       4384348.696
10 0 59846  35880.000000  0       1993647.868       5314657.028       4208710.737
10 0 59846  35910.000000  0       2088483.276       5417159.081       4028787.271
10 0 59846  35940.000000  0       2181643.250       5513774.048       3844761.326
10 0 59846  35970.000000  0       2273007.574       5604411.603       3656820.136
99
